INTELSAT 26             
1 24732C 97007A   21343.00000000 -.00000184  00000-0  00000-0 0  3431
2 24732   9.7886  39.8794 0007887 240.3868 100.6717  0.98910403    16
INTELSAT 26             
1 24732C 97007A   21343.49305556 -.00000182  00000-0  00000-0 0  3436
2 24732   9.7875  39.9002 0012930 258.2420 258.3619  0.98909155    18
GALAXY 25               
1 24812C 97026A   22003.00000000  .00000087  00000-0  00000-0 0    39
2 24812   3.2863  85.3534 0004482 188.2494 255.1098  1.00271471    17
GALAXY 25           [PM]
1 24812C 97026A   22005.53392361  .00000087  00000-0  00000-0 0    55
2 24812   3.2893  82.5432 0005455 183.4546  97.4347  1.00275137    19
GALAXY 25               
1 24812C 97026A   22006.00000000  .00000088  00000-0  00000-0 0    66
2 24812   3.2911  85.3433 0004617 182.9018 263.4188  1.00269713    10
INTELSAT 5          [PM]
1 24916C 97046A   21364.58495370  .00000185  00000-0  00000-0 0  3645
2 24916   6.8724  62.2076 0002851 248.3956 222.2288  1.00267174    12
INTELSAT 5              
1 24916C 97046A   22003.00000000  .00000185  00000-0  00000-0 0    35
2 24916   6.8790  62.2144 0005682 199.8502  63.5306  1.00269717    15
INTELSAT 5              
1 24916C 97046A   22006.00000000  .00000185  00000-0  00000-0 0    61
2 24916   6.8834  62.1913 0005994 198.2653  68.0963  1.00268164    17
GALAXY 11               
1 26038C 99071A   22002.93226852 -.00000072  00000-0  00000-0 0    23
2 26038   2.6062  89.8868 0000506   6.8765 248.2651  1.00269896    17
GALAXY 11               
1 26038C 99071A   22006.00000000 -.00000072  00000-0  00000-0 0    64
2 26038   2.6109  89.8851 0000395  60.5420 222.0025  1.00269688    16
INTELSAT 9              
1 26451C 00043A   22003.00000000 -.00000191  00000-0  00000-0 0    30
2 26451   6.8662  62.3693 0002525 149.4453 200.7473  1.00274616    12
INTELSAT 9          [PM]
1 26451C 00043A   22003.77910880 -.00000191  00000-0  00000-0 0    30
2 26451   6.8662  62.3772 0004613 187.8157  83.6447  1.00270486    17
INTELSAT 9              
1 26451C 00043A   22006.00000000 -.00000191  00000-0  00000-0 0    66
2 26451   6.8697  62.3408 0002591 152.6057 200.5807  1.00274033    15
INTELSAT 1R             
1 26608C 00072A   22002.93226852 -.00000047  00000-0  00000-0 0    21
2 26608   4.0273  81.7676 0001486 345.2456 168.2316  1.00270070    18
INTELSAT 1R             
1 26608C 00072A   22006.00000000 -.00000047  00000-0  00000-0 0    62
2 26608   4.0327  81.7282 0001012 327.5443 213.3667  1.00270805    12
INTELSAT 10         [PM]
1 26766C 01019A   21364.67313657  .00000127  00000-0  00000-0 0  3648
2 26766   5.1811  74.7752 0002242 254.9668 189.7026  1.00268302    13
INTELSAT 10             
1 26766C 01019A   22003.00000000  .00000127  00000-0  00000-0 0    31
2 26766   5.1919  74.7696 0004241 225.7905 339.8161  1.00274275    14
INTELSAT 10         [PM]
1 26766C 01019A   22005.61285880  .00000127  00000-0  00000-0 0    53
2 26766   5.1960  74.7686 0002364 224.6251 204.1868  1.00269739    12
INTELSAT 10             
1 26766C 01019A   22006.00000000  .00000127  00000-0  00000-0 0    67
2 26766   5.1964  74.7469 0004279 222.0939 346.4782  1.00271817    12
INTELSAT 901            
1 26824C 01024A   22003.00000000 -.00000112  00000-0  00000-0 0    37
2 26824   0.0313 283.0534 0000825  46.1030 105.9302  1.00270101    18
INTELSAT 901            
1 26824C 01024A   22006.00000000 -.00000105  00000-0  00000-0 0    65
2 26824   0.0385 250.1369 0000761  46.1005 141.7950  1.00269909    10
INTELSAT 902            
1 26900C 01039A   22003.00000000 -.00000192  00000-0  00000-0 0    36
2 26900   1.9963  90.8607 0002842 202.1460 119.4778  1.00269868    16
INTELSAT 902        [PM]
1 26900C 01039A   22005.61270833 -.00000192  00000-0  00000-0 0    50
2 26900   2.0004  90.8635 0003042 205.3751 339.3935  1.00271715    18
INTELSAT 902            
1 26900C 01039A   22006.00000000 -.00000192  00000-0  00000-0 0    62
2 26900   2.0010  90.8610 0003023 198.8080 125.7716  1.00271764    16
INTELSAT 904        [PM]
1 27380C 02007A   21360.29547454 -.00000123  00000-0  00000-0 0  3600
2 27380   2.8028  87.7787 0002731 203.2100 240.9069  1.00272077    14
INTELSAT 904            
1 27380C 02007A   22003.00000000 -.00000123  00000-0  00000-0 0    39
2 27380   2.8296  87.7240 0002634 202.9043 142.4751  1.00270574    13
INTELSAT 904            
1 27380C 02007A   22006.00000000 -.00000123  00000-0  00000-0 0    65
2 27380   2.8345  87.7168 0002833 203.6629 144.6625  1.00270126    13
INTELSAT 905            
1 27438C 02027A   22003.00000000 -.00000094  00000-0  00000-0 0    32
2 27438   2.6520  88.4987 0002317 183.6618 165.9228  1.00272334    17
INTELSAT 905        [PM]
1 27438C 02027A   22003.75798611 -.00000094  00000-0  00000-0 0    36
2 27438   2.6531  88.5115 0002715 189.6908  73.5078  1.00271515    10
INTELSAT 905            
1 27438C 02027A   22006.00000000 -.00000094  00000-0  00000-0 0    68
2 27438   2.6567  88.4958 0002497 186.0070 166.5397  1.00272092    19
GALAXY 3C               
1 27445C 02030A   22002.93226852 -.00000029  00000-0  00000-0 0    27
2 27445   0.0147 335.4429 0001573   0.1668   7.4943  1.00269333    18
GALAXY 3C               
1 27445C 02030A   22006.00000000 -.00000064  00000-0  00000-0 0    67
2 27445   0.0166 327.3106 0001857  11.9888  31.2036  1.00269435    11
INTELSAT 906            
1 27513C 02041A   22003.00000000  .00000105  00000-0  00000-0 0    34
2 27513   1.6633  92.4743 0002903 202.6642 231.5868  1.00272715    13
INTELSAT 906            
1 27513C 02041A   22006.00000000  .00000105  00000-0  00000-0 0    60
2 27513   1.6683  92.4951 0003009 200.2077 236.9707  1.00269965    17
INTELSAT 906        [PM]
1 27513C 02041A   22018.05219907  .00000105  00000-0  00000-0 0   189
2 27513   1.6980  92.3513 0003651 214.2793 253.7425  1.00270270    18
GALAXY 12               
1 27715C 03013B   22003.00000000  .00000149  00000-0  00000-0 0    36
2 27715   2.8643  87.3092 0002028 210.7173  35.5569  1.00271209    15
GALAXY 12           [PM]
1 27715C 03013B   22004.57043982  .00000149  00000-0  00000-0 0    46
2 27715   2.8672  87.3239 0001485 222.4040 230.7643  1.00269371    18
GALAXY 12               
1 27715C 03013B   22006.00000000  .00000149  00000-0  00000-0 0    62
2 27715   2.8694  87.3003 0002168 205.2936  43.9409  1.00270558    16
GALAXY 23               
1 27854C 03034A   22003.00000000 -.00000013  00000-0  00000-0 0    34
2 27854   0.0442 207.1165 0002605  79.5619  54.9256  1.00272428    18
GALAXY 23           [PM]
1 27854C 03034A   22005.81442130  .00000103  00000-0  00000-0 0    50
2 27854   0.0495 240.8305 0002814  43.1244 353.6030  1.00267970    14
GALAXY 23               
1 27854C 03034A   22006.00000000  .00000103  00000-0  00000-0 0    69
2 27854   0.0489 241.2021 0002847  41.5862  61.7587  1.00268224    18
GALAXY 13               
1 27954C 03044A   22003.00000000 -.00002128  00000-0  00000-0 0    35
2 27954   0.0019 349.3480 0001485  24.4902 321.7638  1.00268504    16
GALAXY 13               
1 27954C 03044A   22006.00000000  .00000051  00000-0  00000-0 0    63
2 27954   0.0000   7.0099 0001875   1.9778 329.5464  1.00269226    19
GALAXY 13           [PM]
1 27954C 03044A   22009.96037037  .00000137  00000-0  00000-0 0    99
2 27954   0.0007  71.6612 0002169 114.9998 141.5021  1.00270384    18
INTELSAT 10-02          
1 28358C 04022A   22002.93226852  .00000079  00000-0  00000-0 0    28
2 28358   0.0264 289.2121 0000767  35.5724 112.3515  1.00269335    19
INTELSAT 10-02          
1 28358C 04022A   22006.00000000  .00000078  00000-0  00000-0 0    68
2 28358   0.0448 234.1707 0000797  71.3884 158.9797  1.00269784    16
GALAXY 28               
1 28702C 05022A   22002.93226852 -.00000106  00000-0  00000-0 0    24
2 28702   0.0155 331.0176 0001882  10.1349   7.9962  1.00269598    14
GALAXY 28               
1 28702C 05022A   22006.00000000 -.00000180  00000-0  00000-0 0    67
2 28702   0.0073 349.6064 0002102 348.0522  38.8824  1.00270672    11
GALAXY 28           [PM]
1 28702C 05022A   22006.26685185 -.00000080  00000-0  00000-0 0    67
2 28702   0.0284 293.9352 0001835  28.3348 150.6038  1.00272433    19
GALAXY 14           [PM]
1 28790C 05030A   22001.84722222  .00000246  00000-0  00000-0 0    14
2 28790   0.8484  93.8202 0001800 180.5408 165.0046  1.00268338    15
GALAXY 14               
1 28790C 05030A   22003.00000000  .00000246  00000-0  00000-0 0    39
2 28790   0.8515  93.9384 0001798 181.8471 219.7037  1.00268627    10
GALAXY 14               
1 28790C 05030A   22006.00000000  .00000246  00000-0  00000-0 0    65
2 28790   0.8567  94.0207 0001971 183.0168 221.3870  1.00270259    11
GALAXY 15               
1 28884C 05041A   22003.00000000  .00000167  00000-0  00000-0 0    37
2 28884   0.0090  36.5060 0001413 242.1489  50.9258  1.00270457    16
GALAXY 15               
1 28884C 05041A   22006.00000000  .00000169  00000-0  00000-0 0    65
2 28884   0.0219 318.3302 0001642 320.1928  54.0195  1.00272512    17
GALAXY 15           [PM]
1 28884C 05041A   22006.35743056  .00000169  00000-0  00000-0 0    68
2 28884   0.0214 318.8034 0001499 321.3162 181.4514  1.00269741    12
GALAXY 16               
1 29236C 06023A   22003.00000000 -.00000015  00000-0  00000-0 0    33
2 29236   0.0489 204.0618 0002279  83.1381  76.3872  1.00271747    13
GALAXY 16           [PM]
1 29236C 06023A   22005.52843750  .00000055  00000-0  00000-0 0    54
2 29236   0.0427 211.5088 0002426  77.7095 267.0973  1.00270651    18
GALAXY 16               
1 29236C 06023A   22006.00000000 -.00000072  00000-0  00000-0 0    62
2 29236   0.0417 212.5989 0002458  75.4001  78.5426  1.00270774    19
GALAXY 17               
1 31307C 07016B   22003.00000000 -.00000082  00000-0  00000-0 0    32
2 31307   0.0166  52.6235 0002620 233.6116  85.3627  1.00271289    16
